[
    {
        "Altitude(m)": 622200.1103590066,
        "Argument of Periapsis(deg)": 0.0,
        "Eccentricity": 0.0,
        "Inclination(deg)": 60.0,
        "Latitude(deg)": -52.162546943827635,
        "Longitude(deg)": -177.63937601895157,
        "Mean Anomaly(deg)": -65.45449999999998,
        "RAAN(deg)": 330.0,
        "Satellite Name": "Test1 1470",
        "Satellite Number": 1470,
        "Semi-Major Axis(m)": 6980739.136638005,
        "Time(s)": 0
    },
    {
        "Altitude(m)": 622058.2786069205,
        "Argument of Periapsis(deg)": 0.00010418945913296404,
        "Eccentricity": 0.0,
        "Inclination(deg)": 60.0,
        "Latitude(deg)": -51.799297941656576,
        "Longitude(deg)": -176.87131630735408,
        "Mean Anomaly(deg)": -64.83439385453813,
        "RAAN(deg)": 329.9995799508602,
        "Satellite Name": "Test1 1470",
        "Satellite Number": 1470,
        "Semi-Major Axis(m)": 6980739.136638005,
        "Time(s)": 10
    }
]